LEMUR-1                 
1 40044U 14033AL  23256.03206160  .00003778  00000+0  53123-3 0  9990
2 40044  97.6748  65.9899 0057490 130.6688 229.9540 14.76776283496627
LEMUR-2-ANUBHAVTHAKUR   
1 41873U 16062E   23255.89125651  .00040142  00000+0  91059-3 0  9999
2 41873  51.6760  16.3069 0004279  84.3947 275.7527 15.42656838378766
LEMUR-2-SATCHMO         
1 41993U 17008AX  23255.94669662  .00196757  00000+0  14621-2 0  9997
2 41993  97.1855 320.2841 0002795  73.2569 286.9002 15.72246676366051
LEMUR-2-RDEATON         
1 41995U 17008AZ  23255.94428213  .00142924  00000+0  15258-2 0  9998
2 41995  97.2019 319.5522 0003693  82.6256 277.5422 15.63456534366641
LEMUR-2-MIA-GRACE       
1 41998U 17008BC  23256.08177184  .00156642  00000+0  15051-2 0  9998
2 41998  97.1981 319.3034 0001927  81.4893 278.6586 15.66089105365897
LEMUR-2-LUCYBRYCE       
1 42773U 17036J   23256.08444360  .00905032  37353-3  21853-2 0  9991
2 42773  97.1186 296.4094 0006245 186.5453 173.5744 15.96427438346777
LEMUR-2-SAM-AMELIA      
1 42781U 17036S   23256.06814785  .00067474  00000+0  11519-2 0  9992
2 42781  97.1319 294.0448 0008140 124.8777 235.3242 15.51059306346586
LEMUR-2-GREENBERG       
1 42837U 17042N   23255.81304496  .00009123  00000+0  76907-3 0  9996
2 42837  97.3851  93.6248 0010365 275.7871  84.2170 14.98344881335882
LEMUR-2-ANDIS           
1 42838U 17042P   23255.54113414  .00006668  00000+0  56464-3 0  9992
2 42838  97.3838  93.2287 0010572 276.9134  83.0886 14.98268784335846
LEMUR-2-MONSON          
1 42839U 17042Q   23255.77791836  .00008523  00000+0  72714-3 0  9996
2 42839  97.3886  93.1279 0009087 278.4594  81.5599 14.97907994335842
LEMUR-2-FURIAUS         
1 42840U 17042R   23255.81878875  .00008438  00000+0  72070-3 0  9992
2 42840  97.3881  93.5562 0010180 277.9347  82.0721 14.97859119335842
LEMUR-2-PETERG          
1 42841U 17042S   23255.79053624  .00005760  00000+0  49373-3 0  9992
2 42841  97.3918  94.8585 0009371 275.7625  84.2530 14.97859351335916
LEMUR-2-DEMBITZ         
1 42842U 17042T   23255.87313003  .00007574  00000+0  64164-3 0  9992
2 42842  97.3871  94.8777 0010144 273.8894  86.1169 14.98212585335940
LEMUR-2-ZACHARY         
1 42845U 17042W   23255.50889634  .00008971  00000+0  71904-3 0  9995
2 42845  97.3791  93.8545 0007509 289.6620  70.3794 15.00318279335983
LEMUR-2-TALLHAMN-ATC    
1 43167U 18010E   23256.31300309  .00244036  00000+0  23937-2 0  9992
2 43167  82.9060 355.8859 0007027 179.7260 180.4006 15.65278083313684
LEMUR-2-JIN-LUEN        
1 43182U 18014C   23255.70269146  .00008462  00000+0  59701-3 0  9998
2 43182  97.6063 156.7271 0012670 217.3439 142.6908 15.05146558306767
LEMUR-2-URAMCHANSOL     
1 43183U 18014D   23255.68324317  .00011053  00000+0  74795-3 0  9998
2 43183  97.6043 157.3079 0013534 207.3744 152.6772 15.06613942306797
LEMUR-2-KADI            
1 43184U 18014E   23255.72723254  .00011164  00000+0  77526-3 0  9995
2 43184  97.5947 156.4751 0011913 190.5015 169.5965 15.05664824306762
LEMUR-2-THENICKMOLO     
1 43185U 18014F   23256.29230815  .00016448  00000+0  11365-2 0  9993
2 43185  97.5977 157.5154 0008191 190.4502 169.6556 15.05787994306861
LEMUR-2-ZUPANSKI        
1 43695U 18088F   23256.35058636  .00485630  00000+0  22343-2 0  9997
2 43695  85.0078   3.5282 0008872 245.6928 114.3420 15.82346489269729
LEMUR-2-CHRISTINAHOLT   
1 43882U 18111G   23256.28843633  .00019580  00000+0  13037-2 0  9990
2 43882  97.6457 163.6280 0008843 188.3139 171.7943 15.07125129255767
LEMUR-2-TINYKEV         
1 43883U 18111H   23256.19917538  .00025252  00000+0  15974-2 0  9992
2 43883  97.6246 163.4298 0009144 178.6212 181.5043 15.08954490255795
LEMUR-2-REMY-COLTON     
1 43884U 18111J   23256.28955739  .00019927  00000+0  12969-2 0  9991
2 43884  97.6370 164.3619 0002486 121.5276 238.6195 15.07992046255824
LEMUR-2-GUSTAVO         
1 43885U 18111K   23256.31381810  .00019385  00000+0  12768-2 0  9994
2 43885  97.6350 163.7620 0014832 193.0774 167.0071 15.07469012255788
LEMUR-2-ZO              
1 43886U 18111L   23256.30398713  .00019091  00000+0  12607-2 0  9990
2 43886  97.6249 163.6590 0012387 211.7876 148.2605 15.07404674255793
LEMUR-2-NATALIEMURRAY   
1 43887U 18111M   23256.19966451  .00019329  00000+0  12655-2 0  9995
2 43887  97.6380 164.4436 0011693 155.4509 204.7278 15.07725871257807
LEMUR-2-SARAHBETTYBOO   
1 43888U 18111N   23256.29127253  .00020317  00000+0  13142-2 0  9997
2 43888  97.6710 166.2361 0010155 247.0530 112.9627 15.08175990257839
LEMUR-2-DAISY-HARPER    
1 43889U 18111P   23256.28750771  .00024257  00000+0  15574-2 0  9992
2 43889  97.6625 166.1058 0007979 244.1372 115.9033 15.08427008257833
LEMUR-2-LILLYJO         
1 44396U 19038L   23255.94628694  .00054813  00000+0  12420-2 0  9993
2 44396  97.6440 241.7969 0012332 352.3726   7.7331 15.42840692232183
LEMUR-2-WANLI           
1 44402U 19038S   23255.93063618  .00054968  00000+0  11533-2 0  9994
2 44402  97.6431 241.9247 0011797 352.1313   7.9748 15.45129079232193
LEMUR-2-MORAG           
1 44403U 19038T   23256.42687694  .00048377  00000+0  12350-2 0  9991
2 44403  97.6521 242.1583 0013411 353.8232   6.2846 15.39248171232192
LEMUR-2-DUSTINTHEWIND   
1 44405U 19038V   23255.89913112  .00037621  00000+0  94798-3 0  9997
2 44405  97.6538 240.8305 0013818 345.4298  14.6546 15.39699285232117
LEMUR-2-ALEX-MADDY      
1 44407U 19038X   23255.69977559  .00038644  00000+0  11862-2 0  9998
2 44407  97.6650 238.5668 0015470   4.7231 355.4154 15.33518751231851
LEMUR-2-EJATTA          
1 44409U 19038Z   23255.93084019  .00040977  00000+0  97083-3 0  9999
2 44409  97.6487 242.0831 0012479 343.7334  16.3510 15.41569624232213
LEMUR-2-GREGROBINSON    
1 44411U 19038AB  23256.20958909  .00023924  00000+0  55442-3 0  9997
2 44411  97.6497 243.2031 0016171   0.9606 359.1669 15.42290840231910
LEMUR-2-YNDRD           
1 44413U 19038AD  23256.40039118  .00032410  00000+0  95627-3 0  9992
2 44413  97.6617 239.4825 0014246 357.3915   2.7251 15.34827663232006
LEMUR-2-JPGSQUARED      
1 44855U 19089D   23256.41911988  .00029366  00000+0  14649-2 0  9993
2 44855  36.9622 263.4776 0005044 324.8088  35.2325 15.16700425206433
LEMUR-2-HIMOMANDDAD     
1 44860U 19089J   23255.42744519  .00022691  00000+0  11251-2 0  9993
2 44860  36.9631 271.2884 0004483 310.9175  49.1184 15.16978388206145
LEMUR-2-PAPPY           
1 44861U 19089K   23255.45656094  .00020307  00000+0  10809-2 0  9997
2 44861  36.9612 274.2693 0005160 308.2001  51.8280 15.14510931206171
LEMUR-2-THEODOSIA       
1 44863U 19089M   23256.41146089  .00027584  00000+0  13522-2 0  9993
2 44863  36.9611 263.3317 0005491 320.3733  39.6612 15.17322828206282
LEMUR-2-ETHANOAKES      
1 46298U 20061AC  23256.10987404  .00065438  00000+0  12705-2 0  9991
2 46298  97.3984 331.3036 0001305  59.9853 300.1526 15.47420738167651
LEMUR-2-OSCARLATOR      
1 46299U 20061AD  23255.97325742  .00067837  00000+0  95432-3 0  9991
2 46299  97.4017 333.1380 0004664  76.9179 283.2596 15.56437550167785
LEMUR-2-SCHMIDTFALL     
1 46315U 20061AV  23255.99047237  .00131886  00000+0  15820-2 0  9990
2 46315  97.3986 334.2496 0000735 325.0883  35.0326 15.60471269167899
LEMUR-2-DJUPROERA       
1 46316U 20061AW  23256.18333864  .00281866  00000+0  16349-2 0  9998
2 46316  97.3949 336.8183 0002997 111.9647 248.1938 15.77755028168086
LEMUR-2-SQUAREJAWS      
1 46317U 20061AX  23256.44662136  .00149426  00000+0  14750-2 0  9994
2 46317  97.3989 335.7294 0002803  76.1253 284.0318 15.65430661168040
LEMUR-2-URSA-AVION      
1 46318U 20061AY  23256.00800404  .00139141  00000+0  14987-2 0  9994
2 46318  97.3980 334.9186 0002757  65.0453 295.1092 15.63242175167950
LEMUR-2-SLICERS         
1 46500U 20068Q   23256.43683478  .00034551  00000+0  15632-2 0  9998
2 46500  97.7587 207.8414 0009251 165.0475 195.1034 15.20790994162537
LEMUR-2-DAYWZAGOODDAY   
1 46501U 20068R   23255.83560037  .00031638  00000+0  14591-2 0  9993
2 46501  97.7615 207.5211 0008855 167.4011 192.7446 15.20154526162448
LEMUR-2-SUSURRUS        
1 46502U 20068S   23256.37184818  .00041132  00000+0  18591-2 0  9997
2 46502  97.7598 207.7888 0009049 165.6360 194.5133 15.20784348162527
LEMUR-2-NICHOL          
1 46503U 20068T   23255.83096013  .00028375  00000+0  13544-2 0  9994
2 46503  97.7617 206.8483 0008555 175.5195 184.6116 15.18990655162414
LEMUR-2-OZARAK          
1 46908U 20081D   23256.10180094  .00032048  00000+0  17314-2 0  9993
2 46908  36.8999  35.7936 0005117 196.2549 163.8032 15.13864867156460
LEMUR-2-JINDRA          
1 46909U 20081E   23256.05365462  .00039868  00000+0  19942-2 0  9998
2 46909  36.8999  29.8511 0005018 208.2427 151.8047 15.16522094156530
LEMUR-2-WALLACE         
1 46910U 20081F   23256.08652895  .00037294  00000+0  19260-2 0  9996
2 46910  36.8998  31.9604 0005182 202.5935 157.4583 15.15418363156507
LEMUR-2-JEREMIAH        
1 46911U 20081G   23256.07791189  .00031840  00000+0  17285-2 0  9992
2 46911  36.9047  33.8467 0007054 205.9490 154.0902 15.13685268156499
LEMUR-2-NEVA            
1 47450U 21006AP  23256.10610408  .00093783  00000+0  21361-2 0  9991
2 47450  97.3827 317.3032 0008141 127.0783 233.1210 15.42560980146338
LEMUR-2-SAOIRSEDH5GUO   
1 47453U 21006AS  23255.74504393  .00123488  00000+0  24501-2 0  9993
2 47453  97.3864 317.9623 0006767 133.7921 226.3889 15.46535435146320
LEMUR-2-NALLYWACKER     
1 47457U 21006AW  23256.12162383  .00127351  00000+0  24516-2 0  9998
2 47457  97.3838 318.3455 0007156 129.5076 230.6807 15.47396056146402
LEMUR-2-MANGO1          
1 47493U 21006CJ  23256.06830095  .00056170  00000+0  16720-2 0  9991
2 47493  97.3805 314.2738 0008257 133.5712 226.6218 15.34484233146176
LEMUR-2-RUAIRI-EILIDH   
1 47511U 21006DC  23256.12220203  .00075596  00000+0  20140-2 0  9997
2 47511  97.3786 314.7040 0005762 130.3684 229.8065 15.37880577146211
LEMUR-2-JENNIFERSONG    
1 47525U 21006DR  23256.08562515  .00119420  00000+0  24447-2 0  9991
2 47525  97.3792 317.6837 0006323 123.4125 236.7729 15.45638292146393
